     3.00           N                   E                   RINEX VERSION / TYPE
BRD_USR             ESA                 20190113 001653  UTCPGM / RUN BY / DATE
 GAL   3.7000E+01  1.3672E-01  3.0518E-04  0.0000E+00       IONOSPHERIC CORR
GAUT  2.7939677238E-09-1.776356839E-15 518400 2035 GSTB   0 TIME SYSTEM CORR
GPGA  8.7311491370E-11-3.108624469E-15      0 2036 GSTB   0 TIME SYSTEM CORR
                                                            END OF HEADER
E33 2019 01 12 22 00 00 8.479107636958E-04 4.263256414561E-14 0.000000000000E+00
     1.000000000000E+02 3.259375000000E+01 2.904406694483E-09 1.393360799664E+00
     1.415610313416E-06 3.690894227475E-04 4.660338163376E-06 5.440597965240E+03
     5.976000000000E+05 5.774199962616E-08-8.693946419365E-01 9.313225746155E-09
     9.851727992358E-01 2.505937500000E+02-1.424335651308E+00-5.713452273935E-09
     2.121516941125E-10 2.580000000000E+02 2.035000000000E+03 0.000000000000E+00
     3.120000000000E+00 5.600000000000E+01-8.149072527885E-09 0.000000000000E+00
     5.983000000000E+05 0.000000000000E+00 0.000000000000E+00 0.000000000000E+00
E36 2019 01 12 22 00 00 7.603893755004E-04-4.504840944719E-12 0.000000000000E+00
     1.000000000000E+02 2.396875000000E+01 2.878334179886E-09-8.628159432216E-01
     1.201406121254E-06 3.336762310937E-04 5.543231964111E-06 5.440595153809E+03
     5.976000000000E+05 7.450580596924E-09-8.693688916525E-01-9.313225746155E-09
     9.851811422576E-01 2.337500000000E+02-1.522688062413E+00-5.635234730146E-09
     2.332240004300E-10 2.580000000000E+02 2.035000000000E+03 0.000000000000E+00
     3.120000000000E+00 5.600000000000E+01 9.313225746155E-10 0.000000000000E+00
     5.983000000000E+05 0.000000000000E+00 0.000000000000E+00 0.000000000000E+00
E08 2019 01 12 22 00 00 6.424646067899E-03-7.460698725481E-12 0.000000000000E+00
     1.000000000000E+02-3.259375000000E+01 3.049412734566E-09-2.335828876991E-01
    -1.464039087296E-06 2.161168958992E-04 1.053325831890E-05 5.440622585297E+03
     5.976000000000E+05 9.313225746155E-09 1.232645217810E+00 7.450580596924E-09
     9.584385345606E-01 1.140937500000E+02 4.604577912981E-01-5.485585639518E-09
     1.385772008681E-10 5.210000000000E+02 2.035000000000E+03 0.000000000000E+00
     3.120000000000E+00 0.000000000000E+00-8.614733815193E-09-1.001171767712E-08
     5.983450000000E+05 0.000000000000E+00 0.000000000000E+00 0.000000000000E+00
E08 2019 01 12 22 00 00 6.424647115637E-03-7.460698725481E-12 0.000000000000E+00
     1.000000000000E+02-3.259375000000E+01 3.049412734566E-09-2.335828876991E-01
    -1.464039087296E-06 2.161168958992E-04 1.053325831890E-05 5.440622585297E+03
     5.976000000000E+05 9.313225746155E-09 1.232645217810E+00 7.450580596924E-09
     9.584385345606E-01 1.140937500000E+02 4.604577912981E-01-5.485585639518E-09
     1.385772008681E-10 2.580000000000E+02 2.035000000000E+03 0.000000000000E+00
     3.120000000000E+00 0.000000000000E+00-8.614733815193E-09 0.000000000000E+00
     5.983500000000E+05 0.000000000000E+00 0.000000000000E+00 0.000000000000E+00
E24 2019 01 12 22 00 00 6.289200799074E-03-1.972466634470E-11 0.000000000000E+00
     1.000000000000E+02 5.625000000000E+00 3.018340011691E-09-1.600605149343E-02
     2.775341272354E-07 4.805055214092E-04 5.964189767838E-06 5.440609800339E+03
     5.976000000000E+05-3.725290298462E-09-2.945897102953E+00 1.862645149231E-09
     9.876958150495E-01 2.242500000000E+02 5.036667561992E-01-5.585946962827E-09
    -3.353711124101E-10 2.580000000000E+02 2.035000000000E+03 0.000000000000E+00
     3.120000000000E+00 0.000000000000E+00 4.284083843231E-08 0.000000000000E+00
     5.983500000000E+05 0.000000000000E+00 0.000000000000E+00 0.000000000000E+00
E25 2019 01 12 22 00 00 1.925692369696E-03-1.141131633631E-11 0.000000000000E+00
     1.000000000000E+02 1.043750000000E+01 3.011196857007E-09 1.061669430748E+00
     4.731118679047E-07 1.867593964562E-04 5.900859832764E-06 5.440620853424E+03
     5.976000000000E+05-4.097819328308E-08-2.951975082845E+00-1.303851604462E-08
     9.896962370265E-01 2.290625000000E+02-1.337204607459E+00-5.599518956726E-09
    -2.792973481413E-10 2.580000000000E+02 2.035000000000E+03 0.000000000000E+00
     3.120000000000E+00 0.000000000000E+00-1.164153218269E-09 0.000000000000E+00
     5.984500000000E+05 0.000000000000E+00 0.000000000000E+00 0.000000000000E+00
E03 2019 01 12 22 00 00-1.214827643707E-04-4.277467269276E-12 0.000000000000E+00
     1.000000000000E+02-4.293750000000E+01 3.211562345891E-09 3.929272047553E-01
    -2.074986696243E-06 2.594229299575E-04 1.044943928719E-05 5.440620130539E+03
     5.976000000000E+05-3.352761268616E-08 1.241254578481E+00 3.725290298462E-09
     9.524518085723E-01 1.134375000000E+02 6.177542819797E-01-5.523801517077E-09
     1.139333172086E-10 5.210000000000E+02 2.035000000000E+03 0.000000000000E+00
     3.120000000000E+00 0.000000000000E+00-1.862645149231E-09-2.095475792885E-09
     5.984650000000E+05 0.000000000000E+00 0.000000000000E+00 0.000000000000E+00
E25 2019 01 12 22 00 00 1.925692369696E-03-1.141131633631E-11 0.000000000000E+00
     1.000000000000E+02 1.043750000000E+01 3.011196857007E-09 1.061669430748E+00
     4.731118679047E-07 1.867593964562E-04 5.900859832764E-06 5.440620853424E+03
     5.976000000000E+05-4.097819328308E-08-2.951975082845E+00-1.303851604462E-08
     9.896962370265E-01 2.290625000000E+02-1.337204607459E+00-5.599518956726E-09
    -2.792973481413E-10 5.210000000000E+02 2.035000000000E+03 0.000000000000E+00
     3.120000000000E+00 0.000000000000E+00-1.164153218269E-09-1.629814505577E-09
     5.984650000000E+05 0.000000000000E+00 0.000000000000E+00 0.000000000000E+00
E03 2019 01 12 22 00 00-1.214827061631E-04-4.263256414561E-12 0.000000000000E+00
     1.000000000000E+02-4.293750000000E+01 3.211562345891E-09 3.929272047553E-01
    -2.074986696243E-06 2.594229299575E-04 1.044943928719E-05 5.440620130539E+03
     5.976000000000E+05-3.352761268616E-08 1.241254578481E+00 3.725290298462E-09
     9.524518085723E-01 1.134375000000E+02 6.177542819797E-01-5.523801517077E-09
     1.139333172086E-10 2.580000000000E+02 2.035000000000E+03 0.000000000000E+00
     3.120000000000E+00 0.000000000000E+00-1.862645149231E-09 0.000000000000E+00
     5.985000000000E+05 0.000000000000E+00 0.000000000000E+00 0.000000000000E+00
E30 2019 01 12 22 00 00 5.193486227654E-03-3.048228336411E-11 0.000000000000E+00
     1.000000000000E+02 1.468750000000E+00 3.009768226070E-09-2.453537421990E+00
     1.005828380585E-07 3.127235686406E-04 6.029382348061E-06 5.440612937927E+03
     5.976000000000E+05 7.823109626770E-08-2.945952582658E+00-1.862645149231E-08
     9.876792167810E-01 2.239375000000E+02 5.875001969071E-01-5.608805057815E-09
    -2.657253542419E-10 2.580000000000E+02 2.035000000000E+03 0.000000000000E+00
     3.120000000000E+00 0.000000000000E+00-2.793967723846E-09 0.000000000000E+00
     5.985500000000E+05 0.000000000000E+00 0.000000000000E+00 0.000000000000E+00
E30 2019 01 12 22 00 00 5.193485820200E-03-3.049649421882E-11 0.000000000000E+00
     1.000000000000E+02 1.468750000000E+00 3.009768226070E-09-2.453537421990E+00
     1.005828380585E-07 3.127235686406E-04 6.029382348061E-06 5.440612937927E+03
     5.976000000000E+05 7.823109626770E-08-2.945952582658E+00-1.862645149231E-08
     9.876792167810E-01 2.239375000000E+02 5.875001969071E-01-5.608805057815E-09
    -2.657253542419E-10 5.210000000000E+02 2.035000000000E+03 0.000000000000E+00
     3.120000000000E+00 0.000000000000E+00-2.793967723846E-09-3.492459654808E-09
     5.985550000000E+05 0.000000000000E+00 0.000000000000E+00 0.000000000000E+00
E15 2019 01 12 22 00 00 9.231354924850E-04-1.023181539495E-12 0.000000000000E+00
     1.000000000000E+02 1.712500000000E+01 2.800116636097E-09-2.360298368930E+00
     7.469207048416E-07 3.883457975462E-04 4.909932613373E-06 5.440599334717E+03
     5.976000000000E+05-1.117587089539E-08-8.693698542526E-01-2.421438694000E-08
     9.851350266910E-01 2.495000000000E+02-1.598052039842E+00-5.619519789841E-09
     1.453631978178E-10 2.580000000000E+02 2.035000000000E+03 0.000000000000E+00
     3.120000000000E+00 5.600000000000E+01 1.396983861923E-09 0.000000000000E+00
     5.988500000000E+05 0.000000000000E+00 0.000000000000E+00 0.000000000000E+00
E15 2019 01 12 22 00 00 9.231357253157E-04-1.023181539495E-12 0.000000000000E+00
     1.000000000000E+02 1.712500000000E+01 2.800116636097E-09-2.360298368930E+00
     7.469207048416E-07 3.883457975462E-04 4.909932613373E-06 5.440599334717E+03
     5.976000000000E+05-1.117587089539E-08-8.693698542526E-01-2.421438694000E-08
     9.851350266910E-01 2.495000000000E+02-1.598052039842E+00-5.619519789841E-09
     1.453631978178E-10 5.210000000000E+02 2.035000000000E+03 0.000000000000E+00
     3.120000000000E+00 4.550000000000E+02 1.396983861923E-09 1.164153218269E-09
     5.988550000000E+05 0.000000000000E+00 0.000000000000E+00 0.000000000000E+00
E01 2019 01 12 22 10 00-5.194562836550E-04-8.043343768804E-12 0.000000000000E+00
     1.010000000000E+02 7.531250000000E+00 2.997982020842E-09 2.743392534705E+00
     3.706663846970E-07 9.570783004165E-05 6.537884473801E-06 5.440615001678E+03
     5.982000000000E+05-4.842877388000E-08-2.949361252003E+00 1.117587089539E-08
     9.901274891842E-01 2.145312500000E+02-6.059154126147E-01-5.519515624266E-09
    -2.921550265724E-10 5.210000000000E+02 2.035000000000E+03 0.000000000000E+00
     3.120000000000E+00 0.000000000000E+00-4.656612873077E-09-5.355104804039E-09
     5.988850000000E+05 0.000000000000E+00 0.000000000000E+00 0.000000000000E+00
